[
    {
        "Altitude(m)": 612513.9552326868,
        "Argument of Periapsis(deg)": 0.0,
        "Eccentricity": 0.0,
        "Inclination(deg)": 60.0,
        "Latitude(deg)": -28.136039693150252,
        "Longitude(deg)": -117.08691391784274,
        "Mean Anomaly(deg)": 212.72729999999999,
        "RAAN(deg)": 145.0,
        "Satellite Name": "Test1 651",
        "Satellite Number": 651,
        "Semi-Major Axis(m)": 6980739.136638005,
        "Time(s)": 0
    },
    {
        "Altitude(m)": 612708.3235912673,
        "Argument of Periapsis(deg)": 0.00010418945913296404,
        "Eccentricity": 0.0,
        "Inclination(deg)": 60.0,
        "Latitude(deg)": -28.64777918275925,
        "Longitude(deg)": -116.7296839045567,
        "Mean Anomaly(deg)": 213.34740614546183,
        "RAAN(deg)": 144.99957995086027,
        "Satellite Name": "Test1 651",
        "Satellite Number": 651,
        "Semi-Major Axis(m)": 6980739.136638005,
        "Time(s)": 10
    },
    {
        "Altitude(m)": 612903.5186164133,
        "Argument of Periapsis(deg)": 0.0002083789182659281,
        "Eccentricity": 0.0,
        "Inclination(deg)": 60.0,
        "Latitude(deg)": -29.158278521471725,
        "Longitude(deg)": -116.36858665228426,
        "Mean Anomaly(deg)": 213.96751229092365,
        "RAAN(deg)": 144.99915990172053,
        "Satellite Name": "Test1 651",
        "Satellite Number": 651,
        "Semi-Major Axis(m)": 6980739.136638005,
        "Time(s)": 20
    },
    {
        "Altitude(m)": 613099.4690978741,
        "Argument of Periapsis(deg)": 0.00031256837739889213,
        "Eccentricity": 0.0,
        "Inclination(deg)": 60.0,
        "Latitude(deg)": -29.667500640356646,
        "Longitude(deg)": -116.00351068989131,
        "Mean Anomaly(deg)": 214.5876184363855,
        "RAAN(deg)": 144.99873985258077,
        "Satellite Name": "Test1 651",
        "Satellite Number": 651,
        "Semi-Major Axis(m)": 6980739.136638005,
        "Time(s)": 30
    },
    {
        "Altitude(m)": 613296.103343549,
        "Argument of Periapsis(deg)": 0.0004167578365318562,
        "Eccentricity": 0.0,
        "Inclination(deg)": 60.0,
        "Latitude(deg)": -30.17540747971571,
        "Longitude(deg)": -115.63434155878618,
        "Mean Anomaly(deg)": -144.79227541815266,
        "RAAN(deg)": 144.99831980344103,
        "Satellite Name": "Test1 651",
        "Satellite Number": 651,
        "Semi-Major Axis(m)": 6980739.136638005,
        "Time(s)": 40
    },
    {
        "Altitude(m)": 613493.3492111986,
        "Argument of Periapsis(deg)": 0.0005209472956648203,
        "Eccentricity": 0.0,
        "Inclination(deg)": 60.0,
        "Latitude(deg)": -30.68195995057338,
        "Longitude(deg)": -115.2609627552321,
        "Mean Anomaly(deg)": -144.1721692726908,
        "RAAN(deg)": 144.9978997543013,
        "Satellite Name": "Test1 651",
        "Satellite Number": 651,
        "Semi-Major Axis(m)": 6980739.136638005,
        "Time(s)": 50
    },
    {
        "Altitude(m)": 613691.1341403557,
        "Argument of Periapsis(deg)": 0.0006251367547977843,
        "Eccentricity": 0.0,
        "Inclination(deg)": 60.0,
        "Latitude(deg)": -31.187117894829342,
        "Longitude(deg)": -114.88325515966964,
        "Mean Anomaly(deg)": -143.55206312722896,
        "RAAN(deg)": 144.99747970516157,
        "Satellite Name": "Test1 651",
        "Satellite Number": 651,
        "Semi-Major Axis(m)": 6980739.136638005,
        "Time(s)": 60
    },
    {
        "Altitude(m)": 613889.385184383,
        "Argument of Periapsis(deg)": 0.0007293262139307483,
        "Eccentricity": 0.0,
        "Inclination(deg)": 60.0,
        "Latitude(deg)": -31.690840044030598,
        "Longitude(deg)": -114.50109646609108,
        "Mean Anomaly(deg)": -142.93195698176717,
        "RAAN(deg)": 144.9970596560218,
        "Satellite Name": "Test1 651",
        "Satellite Number": 651,
        "Semi-Major Axis(m)": 6980739.136638005,
        "Time(s)": 70
    },
    {
        "Altitude(m)": 614088.029042732,
        "Argument of Periapsis(deg)": 0.0008335156730637124,
        "Eccentricity": 0.0,
        "Inclination(deg)": 60.0,
        "Latitude(deg)": -32.19308397672445,
        "Longitude(deg)": -114.1143621245261,
        "Mean Anomaly(deg)": -142.31185083630535,
        "RAAN(deg)": 144.99663960688207,
        "Satellite Name": "Test1 651",
        "Satellite Number": 651,
        "Semi-Major Axis(m)": 6980739.136638005,
        "Time(s)": 80
    },
    {
        "Altitude(m)": 614286.9920933236,
        "Argument of Periapsis(deg)": 0.0009377051321966765,
        "Eccentricity": 0.0,
        "Inclination(deg)": 60.0,
        "Latitude(deg)": -32.69380607435619,
        "Longitude(deg)": -113.7229247711033,
        "Mean Anomaly(deg)": -141.69174469084354,
        "RAAN(deg)": 144.99621955774234,
        "Satellite Name": "Test1 651",
        "Satellite Number": 651,
        "Semi-Major Axis(m)": 6980739.136638005,
        "Time(s)": 90
    },
    {
        "Altitude(m)": 614486.2004250663,
        "Argument of Periapsis(deg)": 0.0010418945913296407,
        "Eccentricity": 0.0,
        "Inclination(deg)": 60.0,
        "Latitude(deg)": -33.19296147567334,
        "Longitude(deg)": -113.3266536587942,
        "Mean Anomaly(deg)": -141.07163854538172,
        "RAAN(deg)": 144.9957995086026,
        "Satellite Name": "Test1 651",
        "Satellite Number": 651,
        "Semi-Major Axis(m)": 6980739.136638005,
        "Time(s)": 100
    },
    {
        "Altitude(m)": 614685.5798704851,
        "Argument of Periapsis(deg)": 0.0011460840504626045,
        "Eccentricity": 0.0,
        "Inclination(deg)": 60.0,
        "Latitude(deg)": -33.690504029598856,
        "Longitude(deg)": -112.92541560198286,
        "Mean Anomaly(deg)": -140.45153239991987,
        "RAAN(deg)": 144.99537945946284,
        "Satellite Name": "Test1 651",
        "Satellite Number": 651,
        "Semi-Major Axis(m)": 6980739.136638005,
        "Time(s)": 110
    },
    {
        "Altitude(m)": 614885.0560384498,
        "Argument of Periapsis(deg)": 0.0012502735095955685,
        "Eccentricity": 0.0,
        "Inclination(deg)": 60.0,
        "Latitude(deg)": -34.18638624654302,
        "Longitude(deg)": -112.51907440940256,
        "Mean Anomaly(deg)": -139.83142625445802,
        "RAAN(deg)": 144.9949594103231,
        "Satellite Name": "Test1 651",
        "Satellite Number": 651,
        "Semi-Major Axis(m)": 6980739.136638005,
        "Time(s)": 120
    },
    {
        "Altitude(m)": 615084.5543470006,
        "Argument of Periapsis(deg)": 0.0013544629687285324,
        "Eccentricity": 0.0,
        "Inclination(deg)": 60.0,
        "Latitude(deg)": -34.68055924811908,
        "Longitude(deg)": -112.10749031864496,
        "Mean Anomaly(deg)": -139.21132010899618,
        "RAAN(deg)": 144.99453936118337,
        "Satellite Name": "Test1 651",
        "Satellite Number": 651,
        "Semi-Major Axis(m)": 6980739.136638005,
        "Time(s)": 130
    },
    {
        "Altitude(m)": 615284.0000562185,
        "Argument of Periapsis(deg)": 0.0014586524278614966,
        "Eccentricity": 0.0,
        "Inclination(deg)": 60.0,
        "Latitude(deg)": -35.17297271523303,
        "Longitude(deg)": -111.69052094547864,
        "Mean Anomaly(deg)": -138.59121396353436,
        "RAAN(deg)": 144.99411931204364,
        "Satellite Name": "Test1 651",
        "Satellite Number": 651,
        "Semi-Major Axis(m)": 6980739.136638005,
        "Time(s)": 140
    },
    {
        "Altitude(m)": 615483.3183011774,
        "Argument of Periapsis(deg)": 0.0015628418869944607,
        "Eccentricity": 0.0,
        "Inclination(deg)": 60.0,
        "Latitude(deg)": -35.66357483452416,
        "Longitude(deg)": -111.2680207226314,
        "Mean Anomaly(deg)": -137.97110781807248,
        "RAAN(deg)": 144.99369926290387,
        "Satellite Name": "Test1 651",
        "Satellite Number": 651,
        "Semi-Major Axis(m)": 6980739.136638005,
        "Time(s)": 150
    },
    {
        "Altitude(m)": 615682.4341248923,
        "Argument of Periapsis(deg)": 0.0016670313461274247,
        "Eccentricity": 0.0,
        "Inclination(deg)": 60.0,
        "Latitude(deg)": -36.152312243131156,
        "Longitude(deg)": -110.83984034135642,
        "Mean Anomaly(deg)": -137.35100167261066,
        "RAAN(deg)": 144.99327921376414,
        "Satellite Name": "Test1 651",
        "Satellite Number": 651,
        "Semi-Major Axis(m)": 6980739.136638005,
        "Time(s)": 160
    },
    {
        "Altitude(m)": 615881.2725113361,
        "Argument of Periapsis(deg)": 0.0017712208052603888,
        "Eccentricity": 0.0,
        "Inclination(deg)": 60.0,
        "Latitude(deg)": -36.63912997176553,
        "Longitude(deg)": -110.4058277091485,
        "Mean Anomaly(deg)": -136.73089552714887,
        "RAAN(deg)": 144.9928591646244,
        "Satellite Name": "Test1 651",
        "Satellite Number": 651,
        "Semi-Major Axis(m)": 6980739.136638005,
        "Time(s)": 170
    },
    {
        "Altitude(m)": 616079.7584184324,
        "Argument of Periapsis(deg)": 0.001875410264393353,
        "Eccentricity": 0.0,
        "Inclination(deg)": 60.0,
        "Latitude(deg)": -37.12397138608098,
        "Longitude(deg)": -109.96582739840218,
        "Mean Anomaly(deg)": -136.11078938168703,
        "RAAN(deg)": 144.99243911548467,
        "Satellite Name": "Test1 651",
        "Satellite Number": 651,
        "Semi-Major Axis(m)": 6980739.136638005,
        "Time(s)": 180
    },
    {
        "Altitude(m)": 616277.8168110512,
        "Argument of Periapsis(deg)": 0.0019795997235263173,
        "Eccentricity": 0.0,
        "Inclination(deg)": 60.0,
        "Latitude(deg)": -37.606778126329964,
        "Longitude(deg)": -109.51968009948085,
        "Mean Anomaly(deg)": -135.49068323622524,
        "RAAN(deg)": 144.99201906634488,
        "Satellite Name": "Test1 651",
        "Satellite Number": 651,
        "Semi-Major Axis(m)": 6980739.136638005,
        "Time(s)": 190
    }
]